[{"OBJECT_NAME":"STARLINK-5371","OBJECT_ID":"2023-015AS","EPOCH":"2026-03-09T22:00:01.999584","MEAN_MOTION":15.12745124,"ECCENTRICITY":0.00021545,"INCLINATION":42.9999,"RA_OF_ASC_NODE":337.3574,"ARG_OF_PERICENTER":259.4989,"MEAN_ANOMALY":68.1375,"EPHEMERIS_TYPE":0,"CLASSIFICATION_TYPE":"U","NORAD_CAT_ID":55489,"ELEMENT_SET_NO":999,"REV_AT_EPOCH":577,"BSTAR":0.0026663223,"MEAN_MOTION_DOT":0.00047663,"MEAN_MOTION_DDOT":0},{"OBJECT_NAME":"CZ-6A DEB","OBJECT_ID":"2022-151ME","EPOCH":"2026-03-09T17:07:50.636064","MEAN_MOTION":15.20556855,"ECCENTRICITY":0.00283971,"INCLINATION":98.6182,"RA_OF_ASC_NODE":149.2426,"ARG_OF_PERICENTER":178.5587,"MEAN_ANOMALY":181.5732,"EPHEMERIS_TYPE":0,"CLASSIFICATION_TYPE":"U","NORAD_CAT_ID":54578,"ELEMENT_SET_NO":999,"REV_AT_EPOCH":10518,"BSTAR":0.0077423675,"MEAN_MOTION_DOT":0.00175116,"MEAN_MOTION_DDOT":0}]
